[{"OBJECT_NAME":"LUR-1","OBJECT_ID":"2024-149AQ","EPOCH":"2026-03-09T19:05:45.284064","MEAN_MOTION":15.28658648,"ECCENTRICITY":0.00027765,"INCLINATION":97.379,"RA_OF_ASC_NODE":148.4255,"ARG_OF_PERICENTER":309.1571,"MEAN_ANOMALY":50.9421,"EPHEMERIS_TYPE":0,"CLASSIFICATION_TYPE":"U","NORAD_CAT_ID":60506,"ELEMENT_SET_NO":999,"REV_AT_EPOCH":8678,"BSTAR":0.0003298462,"MEAN_MOTION_DOT":9.121e-5,"MEAN_MOTION_DDOT":0},{"OBJECT_NAME":"STARLINK-35676","OBJECT_ID":"2026-003M","EPOCH":"2026-03-09T11:27:27.535392","MEAN_MOTION":15.27573613,"ECCENTRICITY":0.0001337,"INCLINATION":43,"RA_OF_ASC_NODE":228.067,"ARG_OF_PERICENTER":268.6448,"MEAN_ANOMALY":91.425,"EPHEMERIS_TYPE":0,"CLASSIFICATION_TYPE":"U","NORAD_CAT_ID":67345,"ELEMENT_SET_NO":999,"REV_AT_EPOCH":879,"BSTAR":0.00043947376,"MEAN_MOTION_DOT":0.00011848,"MEAN_MOTION_DDOT":0}]
